     2.100          NAVIGATION                              RINEX VERSION / TYPE
fic2rin                                 06/27/2012 00:28:57 PGM / RUN BY / DATE
                                                            END OF HEADER
16 12  6 26 22  0  0.0 -.239384360611D-03 -.113686837722D-11  .000000000000D+00
     .640000000000D+02  .606250000000D+01  .434732394063D-08 -.283864896935D+01
     .365078449249D-06  .661348865833D-02  .663660466671D-05  .515369433975D+04
     .252000000000D+06 -.949949026108D-07  .250058000175D+01 -.745058059692D-08
     .981114692279D+00  .265125000000D+03  .600029601641D-02 -.793461622290D-08
     .371086885830D-09  .100000000000D+01  .169400000000D+04  .000000000000D+00
     .240000000000D+01  .000000000000D+00 -.977888703346D-08  .640000000000D+02
     .244806000000D+06  .400000000000D+01
18 12  6 26 22  0  0.0  .202429946512D-03  .181898940355D-11  .000000000000D+00
     .310000000000D+02  .693437500000D+02  .515664336632D-08 -.230901079589D+01
     .355765223503D-05  .134860618273D-01  .613182783127D-05  .515370472717D+04
     .252000000000D+06  .949949026108D-07 -.676077602992D+00 -.987201929092D-07
     .929451019091D+00  .245281250000D+03 -.216662814645D+01 -.824677208259D-08
     .177150236161D-09  .100000000000D+01  .169400000000D+04  .000000000000D+00
     .240000000000D+01  .000000000000D+00 -.107102096081D-07  .310000000000D+02
     .244806000000D+06  .400000000000D+01
19 12  6 26 22  0  0.0 -.279047992080D-03 -.363797880709D-11  .000000000000D+00
     .170000000000D+02 -.520937500000D+02  .489984695544D-08  .167454157328D+01
    -.242143869400D-05  .846205465496D-02  .756978988647D-05  .515358952713D+04
     .252000000000D+06  .279396772385D-07 -.268989111164D+01  .232830643654D-06
     .960680493090D+00  .234281250000D+03  .187217577564D+00 -.828463080241D-08
    -.336085427879D-09  .100000000000D+01  .169400000000D+04  .000000000000D+00
     .240000000000D+01  .000000000000D+00 -.144354999065D-07  .170000000000D+02
     .244806000000D+06  .400000000000D+01
20 12  6 26 22  0  0.0  .642165541649D-04  .341060513165D-12  .000000000000D+00
     .850000000000D+02  .820000000000D+02  .527093384127D-08 -.192993064764D+01
     .421702861786D-05  .492528593168D-02  .696443021297D-05  .515367886353D+04
     .252000000000D+06  .182539224625D-06 -.729778582710D+00 -.353902578354D-07
     .929904443235D+00  .229562500000D+03  .128705357547D+01 -.845678083029D-08
     .889322758148D-10  .100000000000D+01  .169400000000D+04  .000000000000D+00
     .340000000000D+01  .000000000000D+00 -.791624188423D-08  .850000000000D+02
     .244806000000D+06  .400000000000D+01
21 12  6 26 22  0  0.0 -.232761260122D-03 -.238742359215D-11  .000000000000D+00
     .600000000000D+01  .113437500000D+02  .507449708746D-08 -.121341520501D+01
     .592321157455D-06  .192438708618D-01  .990927219391D-05  .515360042381D+04
     .252000000000D+06  .445172190666D-06 -.172690241470D+01  .279396772385D-06
     .931056043570D+00  .170718750000D+03 -.223872377764D+01 -.825570102594D-08
    -.195008122871D-09  .100000000000D+01  .169400000000D+04  .000000000000D+00
     .240000000000D+01  .000000000000D+00 -.111758708954D-07  .600000000000D+01
     .244806000000D+06  .400000000000D+01
22 12  6 26 22  0  0.0  .144901685417D-03  .341060513165D-12  .000000000000D+00
     .184000000000D+03  .709062500000D+02  .525700468963D-08 -.311234308561D+01
     .362657010555D-05  .622323248535D-02  .614300370216D-05  .515367614365D+04
     .252000000000D+06  .335276126862D-07 -.672763006594D+00  .391155481339D-07
     .927175046254D+00  .243375000000D+03 -.201210843520D+01 -.837856328651D-08
     .115004790411D-09  .100000000000D+01  .169400000000D+04  .000000000000D+00
     .340000000000D+01  .000000000000D+00 -.167638063431D-07  .184000000000D+03
     .244806000000D+06  .400000000000D+01
23 12  6 26 22  0  0.0  .191371887922D-03 -.386535248253D-11  .000000000000D+00
     .100000000000D+02 -.113437500000D+02  .463733602080D-08  .127154666870D+01
    -.480562448502D-06  .804452458397D-02  .528804957867D-05  .515361547661D+04
     .252000000000D+06 -.838190317154D-07  .375859207862D+00  .167638063431D-06
     .960093347993D+00  .277437500000D+03 -.299056068241D+01 -.830427447779D-08
    -.323942064916D-09  .100000000000D+01  .169400000000D+04  .000000000000D+00
     .240000000000D+01  .000000000000D+00 -.200234353542D-07  .100000000000D+02
     .244806000000D+06  .400000000000D+01
25 12  6 26 22  0  0.0  .360747799277D-04  .682121026330D-12  .000000000000D+00
     .420000000000D+02  .753125000000D+01  .459590572364D-08 -.180379864960D+01
     .368803739548D-06  .176266883500D-02  .648945569992D-05  .515369557381D+04
     .252000000000D+06  .149011611938D-07  .244798861321D+01  .335276126862D-07
     .969114517178D+00  .259531250000D+03  .728114549968D+00 -.815891127998D-08
     .373944147703D-09  .100000000000D+01  .169400000000D+04  .000000000000D+00
     .240000000000D+01  .000000000000D+00  .558793544769D-08  .420000000000D+02
     .244806000000D+06  .400000000000D+01
26 12  6 26 22  0  0.0 -.363399274647D-03  .106865627458D-10  .000000000000D+00
     .280000000000D+02 -.147500000000D+02  .420053211188D-08  .112653115293D+01
    -.977888703346D-06  .208449244965D-01  .589340925217D-05  .515366301537D+04
     .252000000000D+06 -.309199094772D-06  .449217354906D+00 -.782310962677D-07
     .983210180525D+00  .282437500000D+03  .120131386766D+01 -.832856120372D-08
    -.306441335940D-09  .100000000000D+01  .169400000000D+04  .000000000000D+00
     .240000000000D+01  .000000000000D+00 -.605359673500D-08  .280000000000D+02
     .244806000000D+06  .400000000000D+01
27 12  6 26 22  0  0.0  .402939505875D-03  .409272615798D-11  .000000000000D+00
     .400000000000D+02 -.306562500000D+02  .390587698117D-08  .199118073084D+01
    -.160746276379D-05  .217058064882D-01  .855699181557D-05  .515371862602D+04
     .252000000000D+06  .331550836563D-06  .137305780960D+01  .689178705215D-07
     .981885095661D+00  .224218750000D+03 -.106812436952D+01 -.750816988827D-08
    -.105718689322D-09  .100000000000D+01  .169400000000D+04  .000000000000D+00
     .240000000000D+01  .000000000000D+00 -.419095158577D-08  .400000000000D+02
     .244806000000D+06  .400000000000D+01
28 12  6 26 22  0  0.0  .158861745149D-03  .397903932026D-11  .000000000000D+00
     .830000000000D+02  .421875000000D+01  .430303638159D-08  .310453293610D+01
     .143423676491D-06  .178937577875D-01  .675022602081D-05  .515362926102D+04
     .252000000000D+06  .298023223877D-06  .250727250087D+01 -.244006514549D-06
     .979485828088D+00  .255906250000D+03 -.182664351103D+01 -.774817988565D-08
     .354657630057D-09  .100000000000D+01  .169400000000D+04  .000000000000D+00
     .240000000000D+01  .000000000000D+00 -.107102096081D-07  .830000000000D+02
     .244806000000D+06  .400000000000D+01
29 12  6 26 22  0  0.0  .327504239976D-03  .397903932026D-11  .000000000000D+00
     .290000000000D+02 -.543750000000D+02  .473698302864D-08 -.960335266367D+00
    -.278465449810D-05  .216921151150D-02  .697374343872D-05  .515356256485D+04
     .252000000000D+06 -.316649675369D-07 -.273423520003D+01 -.132247805595D-06
     .963890920943D+00  .243468750000D+03 -.111370325293D+01 -.825748681461D-08
    -.199651173416D-09  .100000000000D+01  .169400000000D+04  .000000000000D+00
     .240000000000D+01  .000000000000D+00 -.931322574615D-08  .290000000000D+02
     .244806000000D+06  .400000000000D+01
30 12  6 26 22  0  0.0 -.260792672634D-03 -.225099938689D-10  .000000000000D+00
     .850000000000D+02  .143437500000D+02  .470805325217D-08  .238497338477D+01
     .581145286560D-06  .111710854108D-01  .659935176373D-05  .515367103195D+04
     .252000000000D+06  .147148966789D-06  .235681056303D+01 -.409781932831D-07
     .960288101888D+00  .251625000000D+03  .157449258682D+01 -.803783480808D-08
     .330370904131D-09  .100000000000D+01  .169400000000D+04  .000000000000D+00
     .136500000000D+02  .000000000000D+00 -.419095158577D-08  .850000000000D+02
     .244806000000D+06  .400000000000D+01
31 12  6 26 22  0  0.0  .255808699876D-03  .295585778076D-11  .000000000000D+00
     .490000000000D+02 -.684375000000D+01  .400659546221D-08 -.319060731714D+00
    -.625848770142D-06  .773685250897D-02  .903569161892D-05  .515367574501D+04
     .252000000000D+06 -.614672899246D-07  .142858994875D+01 -.117346644402D-06
     .980753411493D+00  .213312500000D+03 -.858634779985D+00 -.794997400547D-08
     .127862468842D-09  .100000000000D+01  .169400000000D+04  .000000000000D+00
     .240000000000D+01  .000000000000D+00 -.130385160446D-07  .490000000000D+02
     .244806000000D+06  .400000000000D+01
32 12  6 26 22  0  0.0 -.458675902337D-03 -.409272615798D-11  .000000000000D+00
     .280000000000D+02  .653437500000D+02  .498306470750D-08  .254737222942D+00
     .321120023727D-05  .118181492435D-01  .621937215328D-05  .515364518356D+04
     .252000000000D+06  .156462192535D-06 -.596854522278D+00 -.156462192535D-06
     .951445751032D+00  .256218750000D+03 -.563232006885D+00 -.858464329914D-08
     .642883921553D-10  .100000000000D+01  .169400000000D+04  .000000000000D+00
     .240000000000D+01  .000000000000D+00 -.279396772385D-08  .280000000000D+02
     .244806000000D+06  .400000000000D+01
17 12  6 26 23  0  0.0  .118001829833D-03 -.306954461848D-11  .000000000000D+00
     .113000000000D+03 -.547187500000D+02  .478877090010D-08  .302733897250D+01
    -.287219882011D-05  .738810538314D-02  .664219260216D-05  .515369755554D+04
     .255600000000D+06 -.204890966415D-07 -.274284759187D+01 -.180676579475D-06
     .963345473400D+00  .248062500000D+03 -.229367032384D+01 -.809819446516D-08
    -.230366738556D-09  .100000000000D+01  .169400000000D+04  .000000000000D+00
     .485000000000D+01  .000000000000D+00 -.107102096081D-07  .113000000000D+03
     .244806000000D+06  .600000000000D+01
